{
    "links": {
        "self": "http://www.neowsapp.com/rest/v1/neo/3836280?api_key=iIulBulltgU6a56xZRHN4H3l9WmuAYTsLGpBGhQ2"
    },
    "id": "3836280",
    "neo_reference_id": "3836280",
    "name": "(2018 WO)",
    "designation": "2018 WO",
    "nasa_jpl_url": "http://ssd.jpl.nasa.gov/sbdb.cgi?sstr=3836280",
    "absolute_magnitude_h": 24.6,
    "estimated_diameter": {
        "kilometers": {
            "estimated_diameter_min": 0.0319561887,
            "estimated_diameter_max": 0.0714562102
        },
        "meters": {
            "estimated_diameter_min": 31.9561886721,
            "estimated_diameter_max": 71.4562101727
        },
        "miles": {
            "estimated_diameter_min": 0.0198566489,
            "estimated_diameter_max": 0.0444008168
        },
        "feet": {
            "estimated_diameter_min": 104.8431420431,
            "estimated_diameter_max": 234.436392583
        }
    },
    "is_potentially_hazardous_asteroid": false,
    "close_approach_data": [
        {
            "close_approach_date": "2018-11-04",
            "close_approach_date_full": "2018-Nov-04 09:20",
            "epoch_date_close_approach": 1541323200000,
            "relative_velocity": {
                "kilometers_per_second": "6.9159706462",
                "kilometers_per_hour": "24897.4943263885",
                "miles_per_hour": "15470.3347385273"
            },
            "miss_distance": {
                "astronomical": "0.0853901551",
                "lunar": "33.2167703339",
                "kilometers": "12774185.321929637",
                "miles": "7937510.6917855106"
            },
            "orbiting_body": "Earth"
        }
    ],
    "orbital_data": {
        "orbit_id": "5",
        "orbit_determination_date": "2019-01-21 07:51:00",
        "first_observation_date": "2018-11-17",
        "last_observation_date": "2018-12-09",
        "data_arc_in_days": 22,
        "observations_used": 37,
        "orbit_uncertainty": "7",
        "minimum_orbit_intersection": ".082371",
        "jupiter_tisserand_invariant": "4.116",
        "epoch_osculation": "2459000.5",
        "eccentricity": ".372063373007443",
        "semi_major_axis": "1.692055546111144",
        "inclination": "10.46650180534353",
        "ascending_node_longitude": "232.4901066888459",
        "orbital_period": "803.9339153920112",
        "perihelion_distance": "1.062503652309081",
        "perihelion_argument": "160.11416515",
        "aphelion_distance": "2.321607439913207",
        "perihelion_time": "2459220.735907110755",
        "mean_anomaly": "261.3788011154983",
        "mean_motion": ".4477980006907137",
        "equinox": "J2000",
        "orbit_class": {
            "orbit_class_type": "AMO",
            "orbit_class_description": "Near-Earth asteroid orbits similar to that of 1221 Amor",
            "orbit_class_range": "1.017 AU < q (perihelion) < 1.3 AU"
        }
    },
    "is_sentry_object": false
}